[{"OBJECT_NAME":"STARLINK-37216","OBJECT_ID":"2026-063M","EPOCH":"2026-04-04T06:00:02.000160","MEAN_MOTION":15.93842047,"ECCENTRICITY":0.00015984,"INCLINATION":97.2819,"RA_OF_ASC_NODE":235.1748,"ARG_OF_PERICENTER":57.2593,"MEAN_ANOMALY":86.7626,"EPHEMERIS_TYPE":0,"CLASSIFICATION_TYPE":"U","NORAD_CAT_ID":68391,"ELEMENT_SET_NO":999,"REV_AT_EPOCH":256,"BSTAR":-0.0054064253,"MEAN_MOTION_DOT":-0.01939918,"MEAN_MOTION_DDOT":0.001049448},{"OBJECT_NAME":"STARLINK-37215","OBJECT_ID":"2026-063N","EPOCH":"2026-04-04T06:00:02.000160","MEAN_MOTION":15.93960792,"ECCENTRICITY":0.00016821,"INCLINATION":97.2818,"RA_OF_ASC_NODE":235.1765,"ARG_OF_PERICENTER":59.2847,"MEAN_ANOMALY":87.9903,"EPHEMERIS_TYPE":0,"CLASSIFICATION_TYPE":"U","NORAD_CAT_ID":68392,"ELEMENT_SET_NO":999,"REV_AT_EPOCH":256,"BSTAR":-0.0054024153,"MEAN_MOTION_DOT":-0.01950493,"MEAN_MOTION_DDOT":0.0010615715},{"OBJECT_NAME":"STARLINK-37184","OBJECT_ID":"2026-063P","EPOCH":"2026-04-04T06:00:02.000160","MEAN_MOTION":15.94078189,"ECCENTRICITY":0.00017838,"INCLINATION":97.2818,"RA_OF_ASC_NODE":235.1778,"ARG_OF_PERICENTER":55.8332,"MEAN_ANOMALY":94.7358,"EPHEMERIS_TYPE":0,"CLASSIFICATION_TYPE":"U","NORAD_CAT_ID":68393,"ELEMENT_SET_NO":999,"REV_AT_EPOCH":256,"BSTAR":-0.0053949345,"MEAN_MOTION_DOT":-0.01959766,"MEAN_MOTION_DDOT":0.0010724323},{"OBJECT_NAME":"STARLINK-37157","OBJECT_ID":"2026-063Q","EPOCH":"2026-04-04T06:00:02.000160","MEAN_MOTION":15.94200217,"ECCENTRICITY":0.00017672,"INCLINATION":97.2814,"RA_OF_ASC_NODE":235.1787,"ARG_OF_PERICENTER":54.3235,"MEAN_ANOMALY":99.0016,"EPHEMERIS_TYPE":0,"CLASSIFICATION_TYPE":"U","NORAD_CAT_ID":68394,"ELEMENT_SET_NO":999,"REV_AT_EPOCH":256,"BSTAR":-0.0053131733,"MEAN_MOTION_DOT":-0.01942687,"MEAN_MOTION_DDOT":0.0010562792},{"OBJECT_NAME":"STARLINK-37172","OBJECT_ID":"2026-063R","EPOCH":"2026-04-04T06:00:02.000160","MEAN_MOTION":15.94450764,"ECCENTRICITY":0.00017144,"INCLINATION":97.2809,"RA_OF_ASC_NODE":235.1812,"ARG_OF_PERICENTER":58.3785,"MEAN_ANOMALY":101.031,"EPHEMERIS_TYPE":0,"CLASSIFICATION_TYPE":"U","NORAD_CAT_ID":68395,"ELEMENT_SET_NO":999,"REV_AT_EPOCH":256,"BSTAR":-0.005294733,"MEAN_MOTION_DOT":-0.01961445,"MEAN_MOTION_DDOT":0.0010784485},{"OBJECT_NAME":"STARLINK-37190","OBJECT_ID":"2026-063S","EPOCH":"2026-04-04T06:00:02.000160","MEAN_MOTION":15.94337147,"ECCENTRICITY":0.00016677,"INCLINATION":97.2811,"RA_OF_ASC_NODE":235.1798,"ARG_OF_PERICENTER":60.0418,"MEAN_ANOMALY":96.1057,"EPHEMERIS_TYPE":0,"CLASSIFICATION_TYPE":"U","NORAD_CAT_ID":68396,"ELEMENT_SET_NO":999,"REV_AT_EPOCH":256,"BSTAR":-0.0053060814,"MEAN_MOTION_DOT":-0.01953973,"MEAN_MOTION_DDOT":0.0010694204},{"OBJECT_NAME":"STARLINK-37194","OBJECT_ID":"2026-063T","EPOCH":"2026-04-04T06:00:02.000160","MEAN_MOTION":15.9457227,"ECCENTRICITY":0.00018069,"INCLINATION":97.2809,"RA_OF_ASC_NODE":235.1827,"ARG_OF_PERICENTER":53.9619,"MEAN_ANOMALY":108.495,"EPHEMERIS_TYPE":0,"CLASSIFICATION_TYPE":"U","NORAD_CAT_ID":68397,"ELEMENT_SET_NO":999,"REV_AT_EPOCH":256,"BSTAR":-0.0052638778,"MEAN_MOTION_DOT":-0.01962592,"MEAN_MOTION_DDOT":0.0010810475},{"OBJECT_NAME":"STARLINK-37220","OBJECT_ID":"2026-063U","EPOCH":"2026-04-04T06:00:02.000160","MEAN_MOTION":15.94816578,"ECCENTRICITY":0.00018001,"INCLINATION":97.281,"RA_OF_ASC_NODE":235.1853,"ARG_OF_PERICENTER":56.5193,"MEAN_ANOMALY":111.9555,"EPHEMERIS_TYPE":0,"CLASSIFICATION_TYPE":"U","NORAD_CAT_ID":68398,"ELEMENT_SET_NO":999,"REV_AT_EPOCH":256,"BSTAR":-0.005200099,"MEAN_MOTION_DOT":-0.01964035,"MEAN_MOTION_DDOT":0.0010853976},{"OBJECT_NAME":"STARLINK-37187","OBJECT_ID":"2026-063V","EPOCH":"2026-04-04T06:00:02.000160","MEAN_MOTION":15.94702537,"ECCENTRICITY":0.00017441,"INCLINATION":97.2806,"RA_OF_ASC_NODE":235.184,"ARG_OF_PERICENTER":59.0347,"MEAN_ANOMALY":106.3506,"EPHEMERIS_TYPE":0,"CLASSIFICATION_TYPE":"U","NORAD_CAT_ID":68399,"ELEMENT_SET_NO":999,"REV_AT_EPOCH":256,"BSTAR":-0.0052472598,"MEAN_MOTION_DOT":-0.0196982,"MEAN_MOTION_DDOT":0.0010900919},{"OBJECT_NAME":"STARLINK-36235","OBJECT_ID":"2026-063W","EPOCH":"2026-04-04T06:00:02.000160","MEAN_MOTION":15.94934214,"ECCENTRICITY":0.00016938,"INCLINATION":97.2804,"RA_OF_ASC_NODE":235.1864,"ARG_OF_PERICENTER":63.4265,"MEAN_ANOMALY":108.3733,"EPHEMERIS_TYPE":0,"CLASSIFICATION_TYPE":"U","NORAD_CAT_ID":68400,"ELEMENT_SET_NO":999,"REV_AT_EPOCH":256,"BSTAR":-0.0051990128,"MEAN_MOTION_DOT":-0.01975745,"MEAN_MOTION_DDOT":0.0010990321},{"OBJECT_NAME":"STARLINK-37175","OBJECT_ID":"2026-063X","EPOCH":"2026-04-04T06:00:02.000160","MEAN_MOTION":15.95048327,"ECCENTRICITY":0.00017609,"INCLINATION":97.2805,"RA_OF_ASC_NODE":235.1885,"ARG_OF_PERICENTER":56.8182,"MEAN_ANOMALY":118.243,"EPHEMERIS_TYPE":0,"CLASSIFICATION_TYPE":"U","NORAD_CAT_ID":68401,"ELEMENT_SET_NO":999,"REV_AT_EPOCH":256,"BSTAR":-0.0051700571,"MEAN_MOTION_DOT":-0.01976703,"MEAN_MOTION_DDOT":0.0011014013},{"OBJECT_NAME":"STARLINK-36360","OBJECT_ID":"2026-063Y","EPOCH":"2026-04-04T06:00:02.000160","MEAN_MOTION":15.95168722,"ECCENTRICITY":0.00016602,"INCLINATION":97.2803,"RA_OF_ASC_NODE":235.1896,"ARG_OF_PERICENTER":61.6302,"MEAN_ANOMALY":116.6021,"EPHEMERIS_TYPE":0,"CLASSIFICATION_TYPE":"U","NORAD_CAT_ID":68402,"ELEMENT_SET_NO":999,"REV_AT_EPOCH":256,"BSTAR":-0.0051431595,"MEAN_MOTION_DOT":-0.01978994,"MEAN_MOTION_DDOT":0.0011052559},{"OBJECT_NAME":"STARLINK-37218","OBJECT_ID":"2026-063Z","EPOCH":"2026-04-04T06:00:02.000160","MEAN_MOTION":15.95416315,"ECCENTRICITY":0.00017421,"INCLINATION":97.2806,"RA_OF_ASC_NODE":235.1929,"ARG_OF_PERICENTER":58.2764,"MEAN_ANOMALY":125.765,"EPHEMERIS_TYPE":0,"CLASSIFICATION_TYPE":"U","NORAD_CAT_ID":68403,"ELEMENT_SET_NO":999,"REV_AT_EPOCH":256,"BSTAR":-0.0050754215,"MEAN_MOTION_DOT":-0.01978914,"MEAN_MOTION_DDOT":0.0011081587},{"OBJECT_NAME":"STARLINK-37188","OBJECT_ID":"2026-063AA","EPOCH":"2026-04-04T06:00:02.000160","MEAN_MOTION":15.9529233,"ECCENTRICITY":0.00018547,"INCLINATION":97.2803,"RA_OF_ASC_NODE":235.1911,"ARG_OF_PERICENTER":53.4971,"MEAN_ANOMALY":127.4536,"EPHEMERIS_TYPE":0,"CLASSIFICATION_TYPE":"U","NORAD_CAT_ID":68404,"ELEMENT_SET_NO":999,"REV_AT_EPOCH":256,"BSTAR":-0.0050823512,"MEAN_MOTION_DOT":-0.01968706,"MEAN_MOTION_DDOT":0.0010959094},{"OBJECT_NAME":"SHIYAN-33","OBJECT_ID":"2026-064A","EPOCH":"2026-04-04T05:35:04.619904","MEAN_MOTION":15.23228527,"ECCENTRICITY":0.00137003,"INCLINATION":97.4652,"RA_OF_ASC_NODE":170.14,"ARG_OF_PERICENTER":200.4389,"MEAN_ANOMALY":159.6301,"EPHEMERIS_TYPE":0,"CLASSIFICATION_TYPE":"U","NORAD_CAT_ID":68405,"ELEMENT_SET_NO":999,"REV_AT_EPOCH":123,"BSTAR":0.00044271944,"MEAN_MOTION_DOT":0.00010441,"MEAN_MOTION_DDOT":0},{"OBJECT_NAME":"LPNTSAT-001 (IOD-1)","OBJECT_ID":"2026-065A","EPOCH":"2026-04-01T04:04:57.158400","MEAN_MOTION":15.18233471,"ECCENTRICITY":0.0015408,"INCLINATION":97.4137,"RA_OF_ASC_NODE":333.2788,"ARG_OF_PERICENTER":273.4606,"MEAN_ANOMALY":86.4866,"EPHEMERIS_TYPE":0,"CLASSIFICATION_TYPE":"U","NORAD_CAT_ID":68408,"ELEMENT_SET_NO":999,"REV_AT_EPOCH":57,"BSTAR":0.00023469,"MEAN_MOTION_DOT":4.75e-5,"MEAN_MOTION_DDOT":0}]
