{"fetched_at":"2026-04-05T08:44:33Z","count":17020,"tles":[{"name":"STARLINK-37216","line1":"1 68391U 26063M   26094.25002315 -.01939918  10494-2 -54064-2 0  9996","line2":"2 68391  97.2819 235.1748 0001598  57.2593  86.7626 15.93842047  2560","category":"Starlink"},{"name":"STARLINK-37215","line1":"1 68392U 26063N   26094.25002315 -.01950493  10616-2 -54024-2 0  9990","line2":"2 68392  97.2818 235.1765 0001682  59.2847  87.9903 15.93960792  2566","category":"Starlink"},{"name":"STARLINK-37184","line1":"1 68393U 26063P   26094.25002315 -.01959766  10724-2 -53949-2 0  9998","line2":"2 68393  97.2818 235.1778 0001783  55.8332  94.7358 15.94078189  2565","category":"Starlink"},{"name":"STARLINK-37157","line1":"1 68394U 26063Q   26094.25002315 -.01942687  10563-2 -53132-2 0  9998","line2":"2 68394  97.2814 235.1787 0001767  54.3235  99.0016 15.94200217  2568","category":"Starlink"},{"name":"STARLINK-37172","line1":"1 68395U 26063R   26094.25002315 -.01961445  10784-2 -52947-2 0  9990","line2":"2 68395  97.2809 235.1812 0001714  58.3785 101.0310 15.94450764  2563","category":"Starlink"},{"name":"STARLINK-37190","line1":"1 68396U 26063S   26094.25002315 -.01953973  10694-2 -53061-2 0  9996","line2":"2 68396  97.2811 235.1798 0001667  60.0418  96.1057 15.94337147  2561","category":"Starlink"},{"name":"STARLINK-37194","line1":"1 68397U 26063T   26094.25002315 -.01962592  10810-2 -52639-2 0  9994","line2":"2 68397  97.2809 235.1827 0001806  53.9619 108.4950 15.94572270  2568","category":"Starlink"},{"name":"STARLINK-37220","line1":"1 68398U 26063U   26094.25002315 -.01964035  10854-2 -52001-2 0  9990","line2":"2 68398  97.2810 235.1853 0001800  56.5193 111.9555 15.94816578  2562","category":"Starlink"},{"name":"STARLINK-37187","line1":"1 68399U 26063V   26094.25002315 -.01969820  10901-2 -52473-2 0  9994","line2":"2 68399  97.2806 235.1840 0001744  59.0347 106.3506 15.94702537  2563","category":"Starlink"},{"name":"STARLINK-36235","line1":"1 68400U 26063W   26094.25002315 -.01975745  10990-2 -51990-2 0  9991","line2":"2 68400  97.2804 235.1864 0001693  63.4265 108.3733 15.94934214  2564","category":"Starlink"},{"name":"STARLINK-36360","line1":"1 68402U 26063Y   26094.25002315 -.01978994  11053-2 -51432-2 0  9994","line2":"2 68402  97.2803 235.1896 0001660  61.6302 116.6021 15.95168722  2562","category":"Starlink"},{"name":"STARLINK-37175","line1":"1 68401U 26063X   26094.25002315 -.01976703  11014-2 -51701-2 0  9995","line2":"2 68401  97.2805 235.1885 0001760  56.8182 118.2430 15.95048327  2564","category":"Starlink"},{"name":"STARLINK-37218","line1":"1 68403U 26063Z   26094.25002315 -.01978914  11082-2 -50754-2 0  9995","line2":"2 68403  97.2806 235.1929 0001742  58.2764 125.7650 15.95416315  2561","category":"Starlink"},{"name":"STARLINK-37188","line1":"1 68404U 26063AA  26094.25002315 -.01968706  10959-2 -50824-2 0  9994","line2":"2 68404  97.2803 235.1911 0001854  53.4971 127.4536 15.95292330  2562","category":"Starlink"},{"name":"SHIYAN-33","line1":"1 68405U 26064A   26094.23269236  .00010441  00000+0  44272-3 0  9996","line2":"2 68405  97.4652 170.1400 0013700 200.4389 159.6301 15.23228527  1236","category":"Other"},{"name":"LPNTSAT-001 (IOD-1)","line1":"1 68408U 26065A   26091.17010600  .00004750  00000+0  23469-3 0  9990","line2":"2 68408  97.4137 333.2788 0015408 273.4606  86.4866 15.18233471   574","category":"Other"}]}